{
  "type": "FeatureCollection",
  "features": [
    {
      "type": "Feature",
      "properties": {
        "norad_id": 33913,
        "name": "COSMOS 2251 DEB",
        "group": "cosmos-2251-debris",
        "lat": -62.7651727807886,
        "lon": 165.45742126198937,
        "alt_km": 703.9803876325032,
        "timestamp": "2025-12-04T09:47:37.912704+00:00",
        "meta_object_name": "COSMOS 2251 DEB",
        "meta_object_id": "1993-036DS",
        "meta_epoch": "2025-12-04T00:42:37.560096",
        "meta_mean_motion": 14.48432543,
        "meta_eccentricity": 0.0048148,
        "meta_inclination": 74.0336,
        "meta_ra_of_asc_node": 199.9626,
        "meta_arg_of_pericenter": 304.1333,
        "meta_mean_anomaly": 175.6619,
        "meta_ephemeris_type": 0,
        "meta_classification_type": "U",
        "meta_norad_cat_id": 33913,
        "meta_element_set_no": 999,
        "meta_rev_at_epoch": 88331,
        "meta_bstar": 0.0010646,
        "meta_mean_motion_dot": 4.022e-05,
        "meta_mean_motion_ddot": 0,
        "tle_line1": "1 33913U 93036DS  25338.02960139  .00004022  00000+0  10646-2 0  9997",
        "tle_line2": "2 33913  74.0336 199.9626 0048148 304.1333 175.6619 14.48432543883314"
      },
      "geometry": {
        "type": "Point",
        "coordinates": [
          165.45742126198937,
          -62.7651727807886
        ]
      }
    },
    {
      "type": "Feature",
      "properties": {
        "norad_id": 33914,
        "name": "COSMOS 2251 DEB",
        "group": "cosmos-2251-debris",
        "lat": 26.294399367581878,
        "lon": 36.92648385404672,
        "alt_km": 1047.5584888645271,
        "timestamp": "2025-12-04T09:47:37.912715+00:00",
        "meta_object_name": "COSMOS 2251 DEB",
        "meta_object_id": "1993-036DT",
        "meta_epoch": "2025-12-03T14:57:06.813792",
        "meta_mean_motion": 13.71969866,
        "meta_eccentricity": 0.03019664,
        "meta_inclination": 74.0917,
        "meta_ra_of_asc_node": 30.119,
        "meta_arg_of_pericenter": 135.3474,
        "meta_mean_anomaly": 339.3983,
        "meta_ephemeris_type": 0,
        "meta_classification_type": "U",
        "meta_norad_cat_id": 33914,
        "meta_element_set_no": 999,
        "meta_rev_at_epoch": 83956,
        "meta_bstar": 0.00087236034,
        "meta_mean_motion_dot": 1.076e-05,
        "meta_mean_motion_ddot": 0,
        "tle_line1": "1 33914U 93036DT  25337.62299553  .00001076  00000+0  87236-3 0  9994",
        "tle_line2": "2 33914  74.0917  30.1190 0301966 135.3474 339.3983 13.71969866839561"
      },
      "geometry": {
        "type": "Point",
        "coordinates": [
          36.92648385404672,
          26.294399367581878
        ]
      }
    },
    {
      "type": "Feature",
      "properties": {
        "norad_id": 33915,
        "name": "COSMOS 2251 DEB",
        "group": "cosmos-2251-debris",
        "lat": 56.76659434335129,
        "lon": 75.26484553971294,
        "alt_km": 759.9843583116481,
        "timestamp": "2025-12-04T09:47:37.912724+00:00",
        "meta_object_name": "COSMOS 2251 DEB",
        "meta_object_id": "1993-036DU",
        "meta_epoch": "2025-12-03T15:39:59.054976",
        "meta_mean_motion": 14.35044518,
        "meta_eccentricity": 0.01049351,
        "meta_inclination": 74.045,
        "meta_ra_of_asc_node": 50.7598,
        "meta_arg_of_pericenter": 145.6941,
        "meta_mean_anomaly": 335.518,
        "meta_ephemeris_type": 0,
        "meta_classification_type": "U",
        "meta_norad_cat_id": 33915,
        "meta_element_set_no": 999,
        "meta_rev_at_epoch": 87627,
        "meta_bstar": 0.00076862808,
        "meta_mean_motion_dot": 2.306e-05,
        "meta_mean_motion_ddot": 0,
        "tle_line1": "1 33915U 93036DU  25337.65276684  .00002306  00000+0  76863-3 0  9999",
        "tle_line2": "2 33915  74.0450  50.7598 0104935 145.6941 335.5180 14.35044518876279"
      },
      "geometry": {
        "type": "Point",
        "coordinates": [
          75.26484553971294,
          56.76659434335129
        ]
      }
    },
    {
      "type": "Feature",
      "properties": {
        "norad_id": 33916,
        "name": "COSMOS 2251 DEB",
        "group": "cosmos-2251-debris",
        "lat": 36.57800625297392,
        "lon": 66.52806093485468,
        "alt_km": 1238.2258504169276,
        "timestamp": "2025-12-04T09:47:37.912734+00:00",
        "meta_object_name": "COSMOS 2251 DEB",
        "meta_object_id": "1993-036DV",
        "meta_epoch": "2025-12-03T16:42:08.827200",
        "meta_mean_motion": 13.68595802,
        "meta_eccentricity": 0.03255035,
        "meta_inclination": 74.0531,
        "meta_ra_of_asc_node": 55.448,
        "meta_arg_of_pericenter": 229.5107,
        "meta_mean_anomaly": 260.8619,
        "meta_ephemeris_type": 0,
        "meta_classification_type": "U",
        "meta_norad_cat_id": 33916,
        "meta_element_set_no": 999,
        "meta_rev_at_epoch": 83767,
        "meta_bstar": 0.00082469932,
        "meta_mean_motion_dot": 1.001e-05,
        "meta_mean_motion_ddot": 0,
        "tle_line1": "1 33916U 93036DV  25337.69593550  .00001001  00000+0  82470-3 0  9990",
        "tle_line2": "2 33916  74.0531  55.4480 0325503 229.5107 260.8619 13.68595802837674"
      },
      "geometry": {
        "type": "Point",
        "coordinates": [
          66.52806093485468,
          36.57800625297392
        ]
      }
    },
    {
      "type": "Feature",
      "properties": {
        "norad_id": 33917,
        "name": "COSMOS 2251 DEB",
        "group": "cosmos-2251-debris",
        "lat": 74.09044945410122,
        "lon": -135.60991432301893,
        "alt_km": 1202.4100048039509,
        "timestamp": "2025-12-04T09:47:37.912745+00:00",
        "meta_object_name": "COSMOS 2251 DEB",
        "meta_object_id": "1993-036DW",
        "meta_epoch": "2025-12-03T10:32:20.259168",
        "meta_mean_motion": 13.69336465,
        "meta_eccentricity": 0.03310523,
        "meta_inclination": 74.106,
        "meta_ra_of_asc_node": 137.6428,
        "meta_arg_of_pericenter": 240.6377,
        "meta_mean_anomaly": 116.1306,
        "meta_ephemeris_type": 0,
        "meta_classification_type": "U",
        "meta_norad_cat_id": 33917,
        "meta_element_set_no": 999,
        "meta_rev_at_epoch": 83606,
        "meta_bstar": 0.0010378338,
        "meta_mean_motion_dot": 1.301e-05,
        "meta_mean_motion_ddot": 0,
        "tle_line1": "1 33917U 93036DW  25337.43912337  .00001301  00000+0  10378-2 0  9991",
        "tle_line2": "2 33917  74.1060 137.6428 0331052 240.6377 116.1306 13.69336465836064"
      },
      "geometry": {
        "type": "Point",
        "coordinates": [
          -135.60991432301893,
          74.09044945410122
        ]
      }
    },
    {
      "type": "Feature",
      "properties": {
        "norad_id": 33920,
        "name": "COSMOS 2251 DEB",
        "group": "cosmos-2251-debris",
        "lat": 30.982624014659223,
        "lon": -35.86187222259931,
        "alt_km": 688.4247136397871,
        "timestamp": "2025-12-04T09:47:37.912755+00:00",
        "meta_object_name": "COSMOS 2251 DEB",
        "meta_object_id": "1993-036DZ",
        "meta_epoch": "2025-12-02T04:56:58.153632",
        "meta_mean_motion": 14.57956923,
        "meta_eccentricity": 0.0038561,
        "meta_inclination": 74.0624,
        "meta_ra_of_asc_node": 318.4379,
        "meta_arg_of_pericenter": 326.615,
        "meta_mean_anomaly": 33.2583,
        "meta_ephemeris_type": 0,
        "meta_classification_type": "U",
        "meta_norad_cat_id": 33920,
        "meta_element_set_no": 999,
        "meta_rev_at_epoch": 87961,
        "meta_bstar": 0.0024879,
        "meta_mean_motion_dot": 0.00011527,
        "meta_mean_motion_ddot": 0,
        "tle_line1": "1 33920U 93036DZ  25336.20622863  .00011527  00000+0  24879-2 0  9993",
        "tle_line2": "2 33920  74.0624 318.4379 0038561 326.6150  33.2583 14.57956923879619"
      },
      "geometry": {
        "type": "Point",
        "coordinates": [
          -35.86187222259931,
          30.982624014659223
        ]
      }
    },
    {
      "type": "Feature",
      "properties": {
        "norad_id": 33922,
        "name": "COSMOS 2251 DEB",
        "group": "cosmos-2251-debris",
        "lat": 67.51080973968156,
        "lon": -152.90589117355972,
        "alt_km": 735.9351955063867,
        "timestamp": "2025-12-04T09:47:37.912765+00:00",
        "meta_object_name": "COSMOS 2251 DEB",
        "meta_object_id": "1993-036EB",
        "meta_epoch": "2025-12-03T22:27:16.907040",
        "meta_mean_motion": 14.49459346,
        "meta_eccentricity": 0.0023276,
        "meta_inclination": 74.0457,
        "meta_ra_of_asc_node": 164.2702,
        "meta_arg_of_pericenter": 275.8235,
        "meta_mean_anomaly": 213.7121,
        "meta_ephemeris_type": 0,
        "meta_classification_type": "U",
        "meta_norad_cat_id": 33922,
        "meta_element_set_no": 999,
        "meta_rev_at_epoch": 88450,
        "meta_bstar": 0.00067595932,
        "meta_mean_motion_dot": 2.57e-05,
        "meta_mean_motion_ddot": 0,
        "tle_line1": "1 33922U 93036EB  25337.93561235  .00002570  00000+0  67596-3 0  9993",
        "tle_line2": "2 33922  74.0457 164.2702 0023276 275.8235 213.7121 14.49459346884503"
      },
      "geometry": {
        "type": "Point",
        "coordinates": [
          -152.90589117355972,
          67.51080973968156
        ]
      }
    }
  ]
}